{"RECORDS":[{"CCSDS_OMM_VERS":85624.49,"CREATION_DATE":"1999-11-29T10:15:21.133Z","ORIGINATOR":"Willms - Fadel","OBJECT_NAME":";VYHG=Tw@[","OBJECT_ID":"lole)m!p%/","CENTER_NAME":"v0nP9-Yw3^","REF_FRAME":3,"REF_FRAME_EPOCH":"2039-01-26T18:04:47.262Z","TIME_SYSTEM":0,"MEAN_ELEMENT_THEORY":1,"COMMENT":"FeN_b\"24on","EPOCH":"2042-09-09T19:47:00.489Z","SEMI_MAJOR_AXIS":51161.13,"MEAN_MOTION":45131.25,"ECCENTRICITY":49483.27,"INCLINATION":35294.79,"RA_OF_ASC_NODE":84363.19,"ARG_OF_PERICENTER":59830.34,"MEAN_ANOMALY":86886.12,"GM":41658.8,"MASS":11602.25,"SOLAR_RAD_AREA":39060.5,"SOLAR_RAD_COEFF":75334.31,"DRAG_AREA":79319.38,"DRAG_COEFF":2469.53,"EPHEMERIS_TYPE":2,"CLASSIFICATION_TYPE":"}?w:sC;KM7","NORAD_CAT_ID":4151252556,"ELEMENT_SET_NO":1940920124,"REV_AT_EPOCH":18495.67,"BSTAR":67974.8,"MEAN_MOTION_DOT":72139.55,"MEAN_MOTION_DDOT":29841.46,"COV_REF_FRAME":1,"CX_X":72139.11,"CY_X":15733.75,"CY_Y":40857.63,"CZ_X":76969.07,"CZ_Y":67232.19,"CZ_Z":91558.82,"CX_DOT_X":88197.05,"CX_DOT_Y":12526.01,"CX_DOT_Z":35272.46,"CX_DOT_X_DOT":24057.41,"CY_DOT_X":74119.34,"CY_DOT_Y":95389.33,"CY_DOT_Z":31109.71,"CY_DOT_X_DOT":65311.14,"CY_DOT_Y_DOT":26259.09,"CZ_DOT_X":75568.85,"CZ_DOT_Y":13169.47,"CZ_DOT_Z":65649.2,"CZ_DOT_X_DOT":47841.41,"CZ_DOT_Y_DOT":33367.56,"CZ_DOT_Z_DOT":38467.8,"USER_DEFINED_BIP_0044_TYPE":3052912206,"USER_DEFINED_OBJECT_DESIGNATOR":"qgc5EBz+=6","USER_DEFINED_EARTH_MODEL":"F@JRH,Fsm=","USER_DEFINED_EPOCH_TIMESTAMP":55623.33,"USER_DEFINED_MICROSECONDS":41993.8}]}